OBJECT_NAME,OBJECT_ID,EPOCH,MEAN_MOTION,ECCENTRICITY,INCLINATION,RA_OF_ASC_NODE,ARG_OF_PERICENTER,MEAN_ANOMALY,EPHEMERIS_TYPE,CLASSIFICATION_TYPE,NORAD_CAT_ID,ELEMENT_SET_NO,REV_AT_EPOCH,BSTAR,MEAN_MOTION_DOT,MEAN_MOTION_DDOT
M2 PATHFINDER,2020-037E,2026-07-15T02:37:12.702720,15.04791269,.0012931,97.8142,27.6568,62.8086,297.4456,0,U,45727,999,32969,.50934E-4,.655E-5,0
NETSAT-4,2020-068U,2026-07-14T23:40:51.220416,15.44752306,.0004715,97.8600,206.4803,194.0018,166.1099,0,U,46504,999,32006,.22994E-3,.10657E-3,0
NETSAT-3,2020-068V,2026-07-14T22:46:43.327776,15.43602426,.0003766,97.8649,204.6225,212.3316,147.7700,0,U,46505,999,31996,.23832E-3,.10624E-3,0
NETSAT-1,2020-068W,2026-07-14T23:19:09.123168,15.35242687,.000244,97.8750,198.6436,263.8047,96.2917,0,U,46506,999,31956,.21237E-3,.7177E-4,0
NETSAT-2,2020-068X,2026-07-15T04:19:06.957696,15.47162587,.0002143,97.8610,206.6916,207.7449,152.3685,0,U,46507,999,32006,.27725E-3,.13982E-3,0
GREENCUBE (IO-117),2022-080E,2026-07-15T04:46:20.870688,6.42583355,.0009069,70.1411,288.5050,283.3508,76.6141,0,U,53109,999,9386,0,-.3E-7,0
SITRO-AIS 5 (KATYS),2023-091L,2026-07-15T04:43:21.957024,15.30064779,.0010667,97.5048,260.3723,12.5580,347.5924,0,U,57176,999,16862,.22632E-3,.6517E-4,0
SITRO-AIS 6 (CHIRKIN),2023-091AC,2026-07-15T04:13:05.043648,15.26437481,.0011167,97.5055,259.3193,16.6640,343.4963,0,U,57192,999,16855,.21087E-3,.5427E-4,0
SITRO-AIS 8 (ANOKHIN),2023-091AD,2026-07-15T03:55:52.650912,15.32857601,.0009529,97.5044,262.0439,8.2290,351.9106,0,U,57193,999,16873,.26049E-3,.8197E-4,0
SITRO-AIS 7 (FARTUSHNIY),2023-091AE,2026-07-15T04:26:01.758912,15.26111377,.0011144,97.5051,259.1385,17.9457,342.2172,0,U,57194,999,16854,.20867E-3,.5317E-4,0
SITRO-AIS 10 (BURDAEV),2023-091AK,2026-07-15T03:21:38.954880,15.39626869,.0004851,97.5071,267.3690,341.6111,18.4959,0,U,57199,999,16906,.30233E-3,.11838E-3,0
SITRO-AIS 9 (SHCHUKIN),2023-091AM,2026-07-15T04:12:47.729088,15.39112716,.0005119,97.5070,267.1129,341.7128,18.3932,0,U,57201,999,16905,.29126E-3,.1121E-3,0
SITRO-AIS 12 (SMIRENNIY),2023-091AQ,2026-07-15T03:51:36.696096,15.39408977,.0004697,97.5083,267.5828,334.3437,25.7575,0,U,57204,999,16907,.29761E-3,.11568E-3,0
SITRO-AIS 11 (SHEFFER),2023-091AU,2026-07-15T03:59:34.380960,15.39851703,.0004588,97.5081,267.8529,333.7106,26.3906,0,U,57208,999,16909,.29356E-3,.11577E-3,0
SITRO-AIS 25,2024-039R,2026-07-15T04:18:52.884000,14.93642538,.0142782,95.3892,254.3284,229.5725,129.2976,0,U,59066,999,12890,.14738E-3,.1867E-4,0
SITRO-AIS 26,2024-039S,2026-07-15T04:26:24.736992,14.93434626,.0143115,95.3893,254.2238,230.1771,128.6789,0,U,59067,999,12889,.14156E-3,.1783E-4,0
SITRO-AIS 27,2024-039T,2026-07-15T05:08:39.282720,14.93858441,.0142178,95.3898,254.5288,228.5892,130.3045,0,U,59068,999,12892,.10252E-3,.1293E-4,0
SITRO-AIS 28,2024-039U,2026-07-15T04:35:16.495296,14.93893219,.014208,95.3896,254.5617,228.5171,130.3788,0,U,59071,999,12892,.1398E-3,.1778E-4,0
GRBBETA,2024-128C,2026-07-15T03:49:39.459936,15.06808331,.003704,61.9898,118.1122,140.6501,219.7294,0,U,60237,999,11048,.12678E-3,.1704E-4,0
OOV-CUBE (TUBSAT-30),2024-128F,2026-07-15T03:12:55.725120,15.02873623,.0041119,61.9938,128.1158,140.0187,220.3944,0,U,60240,999,11031,.87108E-4,.978E-5,0
ROBUSTA-3A (MEDITERRANEE),2024-128J,2026-07-15T04:16:59.974752,15.11986976,.0038124,61.9866,109.2343,133.8167,226.6092,0,U,60243,999,11065,.24093E-3,.3998E-4,0
LASARSAT,2024-247Q,2026-07-14T22:22:35.051232,15.48033197,.0007354,44.9739,106.1046,164.5391,195.5725,0,U,62391,999,8761,.40881E-3,.21592E-3,0
CROCUBE,2024-247T,2026-07-15T02:05:50.090784,15.50189566,.0007544,44.9722,102.0802,171.5148,188.5872,0,U,62394,999,8767,.4537E-3,.25934E-3,0
FORESAIL-1 PRIME,2025-276DS,2026-07-15T03:04:49.616256,15.18938050,.0002884,97.4194,268.8900,44.4215,315.7250,0,U,66778,999,3464,.12246E-3,.249E-4,0
KNACKSAT-2,1998-067XZ,2026-07-15T03:08:19.371264,15.62399025,.0008008,51.6273,153.6565,327.9936,32.0570,0,U,67683,999,2464,.36868E-3,.32984E-3,0
