M2 PATHFINDER           
1 45727U 20037E   26196.10917480  .00000655  00000+0  50934-4 0  9991
2 45727  97.8142  27.6568 0012931  62.8086 297.4456 15.04791269329698
NETSAT-4                
1 46504U 20068U   26195.98670394  .00010657  00000+0  22994-3 0  9991
2 46504  97.8600 206.4803 0004715 194.0018 166.1099 15.44752306320064
NETSAT-3                
1 46505U 20068V   26195.94911259  .00010624  00000+0  23832-3 0  9992
2 46505  97.8649 204.6225 0003766 212.3316 147.7700 15.43602426319963
NETSAT-1                
1 46506U 20068W   26195.97163337  .00007177  00000+0  21237-3 0  9998
2 46506  97.8750 198.6436 0002440 263.8047  96.2917 15.35242687319567
NETSAT-2                
1 46507U 20068X   26196.17994164  .00013982  00000+0  27725-3 0  9991
2 46507  97.8610 206.6916 0002143 207.7449 152.3685 15.47162587320065
GREENCUBE (IO-117)      
1 53109U 22080E   26196.19885267 -.00000003  00000+0  00000+0 0  9992
2 53109  70.1411 288.5050 0009069 283.3508  76.6141  6.42583355 93867
SITRO-AIS 5 (KATYS)     
1 57176U 23091L   26196.19678191  .00006517  00000+0  22632-3 0  9993
2 57176  97.5048 260.3723 0010667  12.5580 347.5924 15.30064779168624
SITRO-AIS 6 (CHIRKIN)   
1 57192U 23091AC  26196.17575282  .00005427  00000+0  21087-3 0  9998
2 57192  97.5055 259.3193 0011167  16.6640 343.4963 15.26437481168556
SITRO-AIS 8 (ANOKHIN)   
1 57193U 23091AD  26196.16380383  .00008197  00000+0  26049-3 0  9994
2 57193  97.5044 262.0439 0009529   8.2290 351.9106 15.32857601168736
SITRO-AIS 7 (FARTUSHNIY)
1 57194U 23091AE  26196.18474258  .00005317  00000+0  20867-3 0  9995
2 57194  97.5051 259.1385 0011144  17.9457 342.2172 15.26111377168541
SITRO-AIS 10 (BURDAEV)  
1 57199U 23091AK  26196.14003420  .00011838  00000+0  30233-3 0  9998
2 57199  97.5071 267.3690 0004851 341.6111  18.4959 15.39626869169063
SITRO-AIS 9 (SHCHUKIN)  
1 57201U 23091AM  26196.17555242  .00011210  00000+0  29126-3 0  9992
2 57201  97.5070 267.1129 0005119 341.7128  18.3932 15.39112716169058
SITRO-AIS 12 (SMIRENNIY)
1 57204U 23091AQ  26196.16084139  .00011568  00000+0  29761-3 0  9997
2 57204  97.5083 267.5828 0004697 334.3437  25.7575 15.39408977169070
SITRO-AIS 11 (SHEFFER)  
1 57208U 23091AU  26196.16637015  .00011577  00000+0  29356-3 0  9998
2 57208  97.5081 267.8529 0004588 333.7106  26.3906 15.39851703169094
SITRO-AIS 25            
1 59066U 24039R   26196.17977875  .00001867  00000+0  14738-3 0  9996
2 59066  95.3892 254.3284 0142782 229.5725 129.2976 14.93642538128909
SITRO-AIS 26            
1 59067U 24039S   26196.18500853  .00001783  00000+0  14156-3 0  9997
2 59067  95.3893 254.2238 0143115 230.1771 128.6789 14.93434626128899
SITRO-AIS 27            
1 59068U 24039T   26196.21434355  .00001293  00000+0  10252-3 0  9994
2 59068  95.3898 254.5288 0142178 228.5892 130.3045 14.93858441128920
SITRO-AIS 28            
1 59071U 24039U   26196.19116314  .00001778  00000+0  13980-3 0  9996
2 59071  95.3896 254.5617 0142080 228.5171 130.3788 14.93893219128926
GRBBETA                 
1 60237U 24128C   26196.15948449  .00001704  00000+0  12678-3 0  9991
2 60237  61.9898 118.1122 0037040 140.6501 219.7294 15.06808331110481
OOV-CUBE (TUBSAT-30)    
1 60240U 24128F   26196.13397830  .00000978  00000+0  87108-4 0  9998
2 60240  61.9938 128.1158 0041119 140.0187 220.3944 15.02873623110310
ROBUSTA-3A (MEDITERRAN*)
1 60243U 24128J   26196.17847193  .00003998  00000+0  24093-3 0  9995
2 60243  61.9866 109.2343 0038124 133.8167 226.6092 15.11986976110655
LASARSAT                
1 62391U 24247Q   26195.93235013  .00021592  00000+0  40881-3 0  9991
2 62391  44.9739 106.1046 0007354 164.5391 195.5725 15.48033197 87612
CROCUBE                 
1 62394U 24247T   26196.08738531  .00025934  00000+0  45370-3 0  9996
2 62394  44.9722 102.0802 0007544 171.5148 188.5872 15.50189566 87677
FORESAIL-1 PRIME        
1 66778U 25276DS  26196.12835204  .00002490  00000+0  12246-3 0  9997
2 66778  97.4194 268.8900 0002884  44.4215 315.7250 15.18938050 34645
KNACKSAT-2              
1 67683U 98067XZ  26196.13077976  .00032984  00000+0  36868-3 0  9993
2 67683  51.6273 153.6565 0008008 327.9936  32.0570 15.62399025 24647
